{"type": "FeatureCollection", "features": [ {"type": "Feature", "properties": {"norad_id": 66909, "name": "1998-067XV", "group": "stations", "lat": -48.229856761483816, "lon": 111.33606232575828, "alt_km": 420.11091619070066, "timestamp": "2025-12-06T09:34:15.718819+00:00", "meta": {"OBJECT_NAME": "1998-067XV", "OBJECT_ID": "1998-067XV", "EPOCH": "2025-12-05T18:24:43.911360", "MEAN_MOTION": 15.50399103, "ECCENTRICITY": 0.00053649, "INCLINATION": 51.6292, "RA_OF_ASC_NODE": 176.9805, "ARG_OF_PERICENTER": 189.9534, "MEAN_ANOMALY": 170.135, "EPHEMERIS_TYPE": 0, "CLASSIFICATION_TYPE": "U", "NORAD_CAT_ID": 66909, "ELEMENT_SET_NO": 999, "REV_AT_EPOCH": 53, "BSTAR": 0.0014470913, "MEAN_MOTION_DOT": 0.00084238, "MEAN_MOTION_DDOT": 0}, "tle": {"line1": "1 66909U 98067XV  25339.76717490  .00084238  00000+0  14471-2 0  9996", "line2": "2 66909  51.6292 176.9805 0005364 189.9534 170.1350 15.50399103   531"}}, "geometry": {"type": "Point", "coordinates": [111.33606232575828, -48.229856761483816]}}, {"type": "Feature", "properties": {"norad_id": 66910, "name": "1998-067XW", "group": "stations", "lat": -46.641009878848635, "lon": 116.7978065527665, "alt_km": 420.7073003726773, "timestamp": "2025-12-06T09:34:15.718829+00:00", "meta": {"OBJECT_NAME": "1998-067XW", "OBJECT_ID": "1998-067XW", "EPOCH": "2025-12-05T23:02:14.972928", "MEAN_MOTION": 15.50685227, "ECCENTRICITY": 0.00063204, "INCLINATION": 51.6293, "RA_OF_ASC_NODE": 176.0172, "ARG_OF_PERICENTER": 176.8088, "MEAN_ANOMALY": 183.2943, "EPHEMERIS_TYPE": 0, "CLASSIFICATION_TYPE": "U", "NORAD_CAT_ID": 66910, "ELEMENT_SET_NO": 999, "REV_AT_EPOCH": 56, "BSTAR": 0.0012355568, "MEAN_MOTION_DOT": 0.000725, "MEAN_MOTION_DDOT": 0}, "tle": {"line1": "1 66910U 98067XW  25339.95989552  .00072500  00000+0  12356-2 0  9998", "line2": "2 66910  51.6293 176.0172 0006320 176.8088 183.2943 15.50685227   565"}}, "geometry": {"type": "Point", "coordinates": [116.7978065527665, -46.641009878848635]}}, {"type": "Feature", "properties": {"norad_id": 66911, "name": "1998-067XX", "group": "stations", "lat": -46.463514900188045, "lon": 117.33890113345913, "alt_km": 420.4921418427084, "timestamp": "2025-12-06T09:34:15.718844+00:00", "meta": {"OBJECT_NAME": "1998-067XX", "OBJECT_ID": "1998-067XX", "EPOCH": "2025-12-05T21:29:22.335360", "MEAN_MOTION": 15.50737311, "ECCENTRICITY": 0.00062325, "INCLINATION": 51.6291, "RA_OF_ASC_NODE": 176.3366, "ARG_OF_PERICENTER": 176.693, "MEAN_ANOMALY": 183.4102, "EPHEMERIS_TYPE": 0, "CLASSIFICATION_TYPE": "U", "NORAD_CAT_ID": 66911, "ELEMENT_SET_NO": 999, "REV_AT_EPOCH": 54, "BSTAR": 0.0013660051, "MEAN_MOTION_DOT": 0.00080432, "MEAN_MOTION_DDOT": 0}, "tle": {"line1": "1 66911U 98067XX  25339.89539740  .00080432  00000+0  13660-2 0  9994", "line2": "2 66911  51.6291 176.3366 0006232 176.6930 183.4102 15.50737311   547"}}, "geometry": {"type": "Point", "coordinates": [117.33890113345913, -46.463514900188045]}}, {"type": "Feature", "properties": {"norad_id": 66912, "name": "1998-067XY", "group": "stations", "lat": -48.75492714970802, "lon": 109.21049002681684, "alt_km": 420.6394087685794, "timestamp": "2025-12-06T09:34:15.718854+00:00", "meta": {"OBJECT_NAME": "1998-067XY", "OBJECT_ID": "1998-067XY", "EPOCH": "2025-12-05T19:57:50.505120", "MEAN_MOTION": 15.50237673, "ECCENTRICITY": 0.00053781, "INCLINATION": 51.6293, "RA_OF_ASC_NODE": 176.6617, "ARG_OF_PERICENTER": 189.6271, "MEAN_ANOMALY": 170.4616, "EPHEMERIS_TYPE": 0, "CLASSIFICATION_TYPE": "U", "NORAD_CAT_ID": 66912, "ELEMENT_SET_NO": 999, "REV_AT_EPOCH": 53, "BSTAR": 0.0011244391, "MEAN_MOTION_DOT": 0.00064818, "MEAN_MOTION_DDOT": 0}, "tle": {"line1": "1 66912U 98067XY  25339.83183455  .00064818  00000+0  11244-2 0  9993", "line2": "2 66912  51.6293 176.6617 0005378 189.6271 170.4616 15.50237673   535"}}, "geometry": {"type": "Point", "coordinates": [109.21049002681684, -48.75492714970802]}}]}